[{"OBJECT_NAME":"SITRO-AIS 8 (ANOKHIN)","OBJECT_ID":"2023-091AD","EPOCH":"2026-03-09T23:44:40.058592","MEAN_MOTION":15.29359179,"ECCENTRICITY":0.0012509,"INCLINATION":97.5169,"RA_OF_ASC_NODE":133.2823,"ARG_OF_PERICENTER":92.0171,"MEAN_ANOMALY":268.2501,"EPHEMERIS_TYPE":0,"CLASSIFICATION_TYPE":"U","NORAD_CAT_ID":57193,"ELEMENT_SET_NO":999,"REV_AT_EPOCH":14927,"BSTAR":0.00064982524,"MEAN_MOTION_DOT":0.00018494,"MEAN_MOTION_DDOT":0},{"OBJECT_NAME":"STARLINK-31919","OBJECT_ID":"2024-098Y","EPOCH":"2026-03-09T22:30:22.344768","MEAN_MOTION":15.27587887,"ECCENTRICITY":0.00010278,"INCLINATION":43.0025,"RA_OF_ASC_NODE":276.6299,"ARG_OF_PERICENTER":276.9645,"MEAN_ANOMALY":83.109,"EPHEMERIS_TYPE":0,"CLASSIFICATION_TYPE":"U","NORAD_CAT_ID":59880,"ELEMENT_SET_NO":999,"REV_AT_EPOCH":10188,"BSTAR":0.00014297853,"MEAN_MOTION_DOT":3.675e-5,"MEAN_MOTION_DDOT":0}]
